{
  "type": "FeatureCollection",
  "features": [
    {
      "type": "Feature",
      "properties": {
        "norad_id": 34637,
        "name": "COSMOS 2251 DEB",
        "group": "cosmos-2251-debris",
        "lat": -68.15847716398396,
        "lon": -48.966118456628436,
        "alt_km": 706.0030829187363,
        "timestamp": "2025-12-20T22:39:11.019792+00:00",
        "meta_object_name": "COSMOS 2251 DEB",
        "meta_object_id": "1993-036XJ",
        "meta_epoch": "2025-12-20T06:58:32.739744",
        "meta_mean_motion": 14.60157822,
        "meta_eccentricity": 0.00491651,
        "meta_inclination": 74.0498,
        "meta_ra_of_asc_node": 86.7558,
        "meta_arg_of_pericenter": 155.316,
        "meta_mean_anomaly": 266.6973,
        "meta_ephemeris_type": 0,
        "meta_classification_type": "U",
        "meta_norad_cat_id": 34637,
        "meta_element_set_no": 999,
        "meta_rev_at_epoch": 88637,
        "meta_bstar": 0.00058689997,
        "meta_mean_motion_dot": 2.845e-05,
        "meta_mean_motion_ddot": 0,
        "tle_line1": "1 34637U 93036XJ  25354.29065671  .00002845  00000+0  58690-3 0  9998",
        "tle_line2": "2 34637  74.0498  86.7558 0049165 155.3160 266.6973 14.60157822886379"
      },
      "geometry": {
        "type": "Point",
        "coordinates": [
          -48.966118456628436,
          -68.15847716398396
        ]
      }
    },
    {
      "type": "Feature",
      "properties": {
        "norad_id": 34641,
        "name": "COSMOS 2251 DEB",
        "group": "cosmos-2251-debris",
        "lat": 6.134669757957312,
        "lon": 67.79169810190086,
        "alt_km": 708.8373779944031,
        "timestamp": "2025-12-20T22:39:11.019801+00:00",
        "meta_object_name": "COSMOS 2251 DEB",
        "meta_object_id": "1993-036XN",
        "meta_epoch": "2025-12-20T04:34:06.667680",
        "meta_mean_motion": 14.52052401,
        "meta_eccentricity": 0.00188943,
        "meta_inclination": 73.8396,
        "meta_ra_of_asc_node": 67.4418,
        "meta_arg_of_pericenter": 340.4704,
        "meta_mean_anomaly": 48.556,
        "meta_ephemeris_type": 0,
        "meta_classification_type": "U",
        "meta_norad_cat_id": 34641,
        "meta_element_set_no": 999,
        "meta_rev_at_epoch": 88364,
        "meta_bstar": 0.00056393402,
        "meta_mean_motion_dot": 2.257e-05,
        "meta_mean_motion_ddot": 0,
        "tle_line1": "1 34641U 93036XN  25354.19035495  .00002257  00000+0  56393-3 0  9998",
        "tle_line2": "2 34641  73.8396  67.4418 0018894 340.4704  48.5560 14.52052401883649"
      },
      "geometry": {
        "type": "Point",
        "coordinates": [
          67.79169810190086,
          6.134669757957312
        ]
      }
    },
    {
      "type": "Feature",
      "properties": {
        "norad_id": 34642,
        "name": "COSMOS 2251 DEB",
        "group": "cosmos-2251-debris",
        "lat": -33.6058952474427,
        "lon": -45.398122479856596,
        "alt_km": 1053.411105333651,
        "timestamp": "2025-12-20T22:39:11.019810+00:00",
        "meta_object_name": "COSMOS 2251 DEB",
        "meta_object_id": "1993-036XP",
        "meta_epoch": "2025-12-19T16:47:36.276288",
        "meta_mean_motion": 13.98991151,
        "meta_eccentricity": 0.02066861,
        "meta_inclination": 74.0042,
        "meta_ra_of_asc_node": 327.7452,
        "meta_arg_of_pericenter": 145.9553,
        "meta_mean_anomaly": 35.4618,
        "meta_ephemeris_type": 0,
        "meta_classification_type": "U",
        "meta_norad_cat_id": 34642,
        "meta_element_set_no": 999,
        "meta_rev_at_epoch": 85390,
        "meta_bstar": 0.00059559157,
        "meta_mean_motion_dot": 1.011e-05,
        "meta_mean_motion_ddot": 0,
        "tle_line1": "1 34642U 93036XP  25353.69972542  .00001011  00000+0  59559-3 0  9990",
        "tle_line2": "2 34642  74.0042 327.7452 0206686 145.9553  35.4618 13.98991151853907"
      },
      "geometry": {
        "type": "Point",
        "coordinates": [
          -45.398122479856596,
          -33.6058952474427
        ]
      }
    },
    {
      "type": "Feature",
      "properties": {
        "norad_id": 34671,
        "name": "COSMOS 2251 DEB",
        "group": "cosmos-2251-debris",
        "lat": -11.621836019503503,
        "lon": -58.166071118869255,
        "alt_km": 666.8737335308942,
        "timestamp": "2025-12-20T22:39:11.019819+00:00",
        "meta_object_name": "COSMOS 2251 DEB",
        "meta_object_id": "1993-036XR",
        "meta_epoch": "2025-12-20T10:36:59.077152",
        "meta_mean_motion": 14.67055876,
        "meta_eccentricity": 0.00109075,
        "meta_inclination": 74.027,
        "meta_ra_of_asc_node": 119.4247,
        "meta_arg_of_pericenter": 200.8198,
        "meta_mean_anomaly": 223.5005,
        "meta_ephemeris_type": 0,
        "meta_classification_type": "U",
        "meta_norad_cat_id": 34671,
        "meta_element_set_no": 999,
        "meta_rev_at_epoch": 88410,
        "meta_bstar": 0.0010403942,
        "meta_mean_motion_dot": 5.817e-05,
        "meta_mean_motion_ddot": 0,
        "tle_line1": "1 34671U 93036XR  25354.44235043  .00005817  00000+0  10404-2 0  9997",
        "tle_line2": "2 34671  74.0270 119.4247 0010907 200.8198 223.5005 14.67055876884103"
      },
      "geometry": {
        "type": "Point",
        "coordinates": [
          -58.166071118869255,
          -11.621836019503503
        ]
      }
    },
    {
      "type": "Feature",
      "properties": {
        "norad_id": 34672,
        "name": "COSMOS 2251 DEB",
        "group": "cosmos-2251-debris",
        "lat": -8.429466477248885,
        "lon": 112.9486797487743,
        "alt_km": 791.0880201882983,
        "timestamp": "2025-12-20T22:39:11.019828+00:00",
        "meta_object_name": "COSMOS 2251 DEB",
        "meta_object_id": "1993-036XS",
        "meta_epoch": "2025-12-18T13:28:46.255872",
        "meta_mean_motion": 14.36417673,
        "meta_eccentricity": 0.00241418,
        "meta_inclination": 74.0338,
        "meta_ra_of_asc_node": 294.8922,
        "meta_arg_of_pericenter": 5.7391,
        "meta_mean_anomaly": 109.133,
        "meta_ephemeris_type": 0,
        "meta_classification_type": "U",
        "meta_norad_cat_id": 34672,
        "meta_element_set_no": 999,
        "meta_rev_at_epoch": 65261,
        "meta_bstar": 0.00020838077,
        "meta_mean_motion_dot": 5.86e-06,
        "meta_mean_motion_ddot": 0,
        "tle_line1": "1 34672U 93036XS  25352.56164648  .00000586  00000+0  20838-3 0  9992",
        "tle_line2": "2 34672  74.0338 294.8922 0024141   5.7391 109.1330 14.36417673652611"
      },
      "geometry": {
        "type": "Point",
        "coordinates": [
          112.9486797487743,
          -8.429466477248885
        ]
      }
    },
    {
      "type": "Feature",
      "properties": {
        "norad_id": 34678,
        "name": "COSMOS 2251 DEB",
        "group": "cosmos-2251-debris",
        "lat": -4.360151103339482,
        "lon": 172.02765081778654,
        "alt_km": 809.4879127327204,
        "timestamp": "2025-12-20T22:39:11.019837+00:00",
        "meta_object_name": "COSMOS 2251 DEB",
        "meta_object_id": "1993-036XY",
        "meta_epoch": "2025-12-20T10:44:44.051712",
        "meta_mean_motion": 14.30066266,
        "meta_eccentricity": 0.00246463,
        "meta_inclination": 74.0376,
        "meta_ra_of_asc_node": 351.6788,
        "meta_arg_of_pericenter": 38.3547,
        "meta_mean_anomaly": 112.6582,
        "meta_ephemeris_type": 0,
        "meta_classification_type": "U",
        "meta_norad_cat_id": 34678,
        "meta_element_set_no": 999,
        "meta_rev_at_epoch": 87489,
        "meta_bstar": 2.5658311e-05,
        "meta_mean_motion_dot": 4.1e-07,
        "meta_mean_motion_ddot": 0,
        "tle_line1": "1 34678U 93036XY  25354.44773208  .00000041  00000+0  25658-4 0  9997",
        "tle_line2": "2 34678  74.0376 351.6788 0024646  38.3547 112.6582 14.30066266874892"
      },
      "geometry": {
        "type": "Point",
        "coordinates": [
          172.02765081778654,
          -4.360151103339482
        ]
      }
    },
    {
      "type": "Feature",
      "properties": {
        "norad_id": 34680,
        "name": "COSMOS 2251 DEB",
        "group": "cosmos-2251-debris",
        "lat": -65.18794742503243,
        "lon": 75.95921998370402,
        "alt_km": 696.5651575998072,
        "timestamp": "2025-12-20T22:39:11.019846+00:00",
        "meta_object_name": "COSMOS 2251 DEB",
        "meta_object_id": "1993-036YA",
        "meta_epoch": "2025-12-20T14:51:11.132640",
        "meta_mean_motion": 14.60698323,
        "meta_eccentricity": 0.00064747,
        "meta_inclination": 74.0434,
        "meta_ra_of_asc_node": 114.813,
        "meta_arg_of_pericenter": 215.4086,
        "meta_mean_anomaly": 165.5002,
        "meta_ephemeris_type": 0,
        "meta_classification_type": "U",
        "meta_norad_cat_id": 34680,
        "meta_element_set_no": 999,
        "meta_rev_at_epoch": 88443,
        "meta_bstar": 0.00070479302,
        "meta_mean_motion_dot": 3.407e-05,
        "meta_mean_motion_ddot": 0,
        "tle_line1": "1 34680U 93036YA  25354.61887885  .00003407  00000+0  70479-3 0  9995",
        "tle_line2": "2 34680  74.0434 114.8130 0006474 215.4086 165.5002 14.60698323884438"
      },
      "geometry": {
        "type": "Point",
        "coordinates": [
          75.95921998370402,
          -65.18794742503243
        ]
      }
    }
  ]
}